GLOBALSTAR M075         
1 37192U 10054E   25196.65956198 -.00000080  00000+0  13139-3 0  9992
2 37192  51.9949  94.8452 0000635  54.7743 318.8823 12.62266133679442
GLOBALSTAR M073         
1 37193U 10054F   25196.42136406 -.00000106  00000+0 -11176-4 0  9990
2 37193  52.0078   9.4101 0000942  81.6801 289.3991 12.62272491681407
GLOBALSTAR M083         
1 37739U 11033A   25196.59373169 -.00000081  00000+0  12473-3 0  9992
2 37739  51.9876 317.5813 0000547 112.3859 260.6348 12.62260011650449
GLOBALSTAR M088         
1 37740U 11033B   25196.52115587 -.00000101  00000+0  13922-4 0  9999
2 37740  52.0188 223.4117 0000236 172.0237 352.0424 12.62266774645974
GLOBALSTAR M091         
1 37741U 11033C   25196.26334744 -.00000111  00000+0 -38460-4 0  9995
2 37741  51.9970 187.6569 0000234 298.8919  73.7214 12.62269277646736
GLOBALSTAR M085         
1 37742U 11033D   25196.60152786 -.00000087  00000+0  93473-4 0  9994
2 37742  51.9856 137.6390 0000415   4.4008 166.3196 12.62269732647283
GLOBALSTAR M081         
1 37743U 11033E   25196.62837049 -.00000093  00000+0  57698-4 0  9995
2 37743  51.9947 140.3642 0000549  17.9686 153.1709 12.62267028647432
GLOBALSTAR M089         
1 37744U 11033F   25196.10804209 -.00000085  00000+0  10486-3 0  9995
2 37744  51.9933  96.1701 0000865  67.8876  78.8390 12.62265300648215
